NORAD_CAT_ID,OBJECT_NAME,OBJECT_TYPE,EPOCH,MEAN_MOTION,ECCENTRICITY,INCLINATION,RA_OF_ASC_NODE,ARG_OF_PERICENTER,MEAN_ANOMALY,BSTAR,MEAN_MOTION_DOT,MEAN_MOTION_DDOT,TLE_LINE0,TLE_LINE1,TLE_LINE2,SEMIMAJOR_AXIS,PERIOD,APOGEE,PERIGEE,DECAYED
53528.0,STARLINK-4503,PAYLOAD,2024-02-18 14:39:27,15.08840378,0.0001476,53.2175,201.3553,87.5104,272.6057,5.9407e-05,6.58e-06,0.0,0 STARLINK-4503,1 53528U 22101B   24049.61073346  .00000658  00000-0  59407-4 0  9996,2 53528  53.2175 201.3553 0001476  87.5104 272.6057 15.08840378 82924,6917.879,95.438,540.765,538.723,0.0
53528.0,STARLINK-4503,PAYLOAD,2024-02-18 17:50:13,15.08849191,0.0001391,53.2168,200.7633,87.9325,272.1827,5.5085e-05,5.89e-06,0.0,0 STARLINK-4503,1 53528U 22101B   24049.74320843  .00000589  00000-0  55085-4 0  9998,2 53528  53.2168 200.7633 0001391  87.9325 272.1827 15.08849191 82947,6917.852,95.437,540.68,538.755,0.0
53528.0,STARLINK-4503,PAYLOAD,2024-02-19 03:22:32,15.08843881,0.0001391,53.2167,198.9774,93.2448,266.8704,7.2607e-06,-1.72e-06,0.0,0 STARLINK-4503,1 53528U 22101B   24050.14065145 -.00000172  00000-0  72607-5 0  9994,2 53528  53.2167 198.9774 0001391  93.2448 266.8704 15.08843881 83008,6917.869,95.437,540.696,538.771,0.0
53528.0,STARLINK-4503,PAYLOAD,2024-02-19 11:19:28,15.08833135,0.0001428,53.2168,197.4927,93.4576,266.6579,-8.6016e-07,-3.02e-06,0.0,0 STARLINK-4503,1 53528U 22101B   24050.47185993 -.00000302  00000-0 -86016-6 0  9990,2 53528  53.2168 197.4927 0001428  93.4576 266.6579 15.08833135 83052,6917.901,95.438,540.754,538.778,0.0
53528.0,STARLINK-4503,PAYLOAD,2024-02-19 14:30:14,15.08833747,0.0001296,53.2179,196.8982,94.2804,265.8336,2.8836e-05,1.71e-06,0.0,0 STARLINK-4503,1 53528U 22101B   24050.60433876  .00000171  00000-0  28836-4 0  9997,2 53528  53.2179 196.8982 0001296  94.2804 265.8336 15.08833747 83077,6917.9,95.438,540.661,538.868,0.0
53528.0,STARLINK-4503,PAYLOAD,2024-02-19 16:05:37,15.08836778,0.000163,53.2174,196.5989,95.6177,264.5001,2.652e-05,1.34e-06,0.0,0 STARLINK-4503,1 53528U 22101B   24050.67057740  .00000134  00000-0  26520-4 0  9993,2 53528  53.2174 196.5989 0001630  95.6177 264.5001 15.08836778 83089,6917.89,95.438,540.883,538.628,0.0
53528.0,STARLINK-4503,PAYLOAD,2024-02-20 14:21:01,15.0884359,0.0001408,53.2159,192.4355,92.5945,267.5208,-3.9335e-05,-9.14e-06,0.0,0 STARLINK-4503,1 53528U 22101B   24051.59793735 -.00000914  00000-0 -39335-4 0  9992,2 53528  53.2159 192.4355 0001408  92.5945 267.5208 15.08843590 83224,6917.869,95.437,540.708,538.76,0.0
53528.0,STARLINK-4503,PAYLOAD,2024-02-20 19:07:11,15.0884353,0.000144,53.2169,191.5438,84.685,275.4307,-6.1894e-05,-1.273e-05,0.0,0 STARLINK-4503,1 53528U 22101B   24051.79665817 -.00001273  00000-0 -61894-4 0  9997,2 53528  53.2169 191.5438 0001440  84.6850 275.4307 15.08843530 83255,6917.87,95.437,540.731,538.738,0.0
53528.0,STARLINK-4503,PAYLOAD,2024-02-21 14:11:48,15.08836392,0.0001373,53.2172,187.9754,91.0328,269.0821,0.00014295,1.988e-05,0.0,0 STARLINK-4503,1 53528U 22101B   24052.59153579  .00001988  00000-0  14295-3 0  9996,2 53528  53.2172 187.9754 0001373  91.0328 269.0821 15.08836392 83377,6917.891,95.438,540.706,538.807,0.0
53528.0,STARLINK-4503,PAYLOAD,2024-02-21 15:47:11,15.08838946,0.0001288,53.2167,187.6784,87.3342,272.7798,0.00015916,2.246e-05,0.0,0 STARLINK-4503,1 53528U 22101B   24052.65777380  .00002246  00000-0  15916-3 0  9994,2 53528  53.2167 187.6784 0001288  87.3342 272.7798 15.08838946 83382,6917.884,95.438,540.64,538.858,0.0
53528.0,STARLINK-4503,PAYLOAD,2024-02-22 12:27:13,15.08834197,0.0001492,53.2168,183.8124,83.2763,276.8399,3.5514e-05,2.77e-06,0.0,0 STARLINK-4503,1 53528U 22101B   24053.51890431  .00000277  00000-0  35514-4 0  9992,2 53528  53.2168 183.8124 0001492  83.2763 276.8399 15.08834197 83519,6917.898,95.438,540.795,538.731,0.0
53528.0,STARLINK-4503,PAYLOAD,2024-02-22 14:02:36,15.08835345,0.0001477,53.2169,183.5152,81.8122,278.3037,4.3522e-05,4.05e-06,0.0,0 STARLINK-4503,1 53528U 22101B   24053.58514335  .00000405  00000-0  43522-4 0  9996,2 53528  53.2169 183.5152 0001477  81.8122 278.3037 15.08835345 83527,6917.895,95.438,540.781,538.738,0.0
53528.0,STARLINK-4503,PAYLOAD,2024-02-22 15:37:59,15.08835996,0.0001464,53.2169,183.2192,79.0198,281.0959,6.4418e-05,7.37e-06,0.0,0 STARLINK-4503,1 53528U 22101B   24053.65138039  .00000737  00000-0  64418-4 0  9992,2 53528  53.2169 183.2192 0001464  79.0198 281.0959 15.08835996 83533,6917.893,95.438,540.77,538.745,0.0
53528.0,STARLINK-4503,PAYLOAD,2024-02-23 15:28:47,15.08835724,0.0001466,53.2172,178.762,101.4408,258.6749,-7.0021e-05,-1.402e-05,0.0,0 STARLINK-4503,1 53528U 22101B   24054.64498908 -.00001402  00000-0 -70021-4 0  9995,2 53528  53.2172 178.7620 0001466 101.4408 258.6749 15.08835724 83680,6917.893,95.438,540.773,538.744,0.0
53528.0,STARLINK-4503,PAYLOAD,2024-02-23 17:04:09,15.08841477,0.0001375,53.2169,178.4619,89.9197,270.1952,-2.9172e-05,-7.52e-06,0.0,0 STARLINK-4503,1 53528U 22101B   24054.71122385 -.00000752  00000-0 -29172-4 0  9994,2 53528  53.2169 178.4619 0001375  89.9197 270.1952 15.08841477 83693,6917.876,95.437,540.692,538.79,0.0
53528.0,STARLINK-4503,PAYLOAD,2024-02-24 13:44:10,15.08842179,0.0001361,53.2164,174.5958,94.6515,265.4632,6.7083e-05,7.8e-06,0.0,0 STARLINK-4503,1 53528U 22101B   24055.57234242  .00000780  00000-0  67083-4 0  9997,2 53528  53.2164 174.5958 0001361  94.6515 265.4632 15.08842179 83820,6917.874,95.437,540.68,538.797,0.0
53528.0,STARLINK-4503,PAYLOAD,2024-02-25 11:59:34,15.08844424,0.0001401,53.2164,170.4324,102.9936,257.1213,6.4029e-05,7.31e-06,0.0,0 STARLINK-4503,1 53528U 22101B   24056.49970082  .00000731  00000-0  64029-4 0  9991,2 53528  53.2164 170.4324 0001401 102.9936 257.1213 15.08844424 83960,6917.867,95.437,540.701,538.763,0.0
53528.0,STARLINK-4503,PAYLOAD,2024-02-25 13:34:57,15.08846019,0.0001427,53.2165,170.1352,103.0048,257.1103,7.7063e-05,9.39e-06,0.0,0 STARLINK-4503,1 53528U 22101B   24056.56593931  .00000939  00000-0  77063-4 0  9995,2 53528  53.2165 170.1352 0001427 103.0048 257.1103 15.08846019 83974,6917.862,95.437,540.714,538.74,0.0
53528.0,STARLINK-4503,PAYLOAD,2024-02-25 16:45:42,15.08851417,0.000148,53.2165,169.5401,106.1697,253.9458,0.00017288,2.465e-05,0.0,0 STARLINK-4503,1 53528U 22101B   24056.69841224  .00002465  00000-0  17288-3 0  9998,2 53528  53.2165 169.5401 0001480 106.1697 253.9458 15.08851417 83991,6917.845,95.437,540.734,538.687,0.0
53528.0,STARLINK-4503,PAYLOAD,2024-02-26 00:42:40,15.08832261,0.0002014,53.217,168.0546,83.8953,276.2269,-4.683e-05,-1.033e-05,0.0,0 STARLINK-4503,1 53528U 22101B   24057.02963394 -.00001033  00000-0 -46830-4 0  9997,2 53528  53.2170 168.0546 0002014  83.8953 276.2269 15.08832261 84042,6917.904,95.438,541.162,538.376,0.0
53528.0,STARLINK-4503,PAYLOAD,2024-02-26 13:25:45,15.08830891,0.0001915,53.2177,165.6767,67.6568,292.4627,-5.6341e-05,-1.185e-05,0.0,0 STARLINK-4503,1 53528U 22101B   24057.55955784 -.00001185  00000-0 -56341-4 0  9995,2 53528  53.2177 165.6767 0001915  67.6568 292.4627 15.08830891 84122,6917.908,95.438,541.098,538.448,0.0
53528.0,STARLINK-4503,PAYLOAD,2024-02-27 11:41:08,15.0884856,0.0001557,53.217,161.5123,77.5496,282.5671,-1.1168e-05,-4.66e-06,0.0,0 STARLINK-4503,1 53528U 22101B   24058.48690490 -.00000466  00000-0 -11168-4 0  9997,2 53528  53.2170 161.5123 0001557  77.5496 282.5671 15.08848560 84264,6917.854,95.437,540.796,538.642,0.0
53528.0,STARLINK-4503,PAYLOAD,2024-02-27 13:16:31,15.08853106,0.0001313,53.2159,161.2126,90.9061,269.2081,4.0472e-06,-2.23e-06,0.0,0 STARLINK-4503,1 53528U 22101B   24058.55314017 -.00000223  00000-0  40472-5 0  9994,2 53528  53.2159 161.2126 0001313  90.9061 269.2081 15.08853106 84278,6917.84,95.437,540.614,538.797,0.0
53528.0,STARLINK-4503,PAYLOAD,2024-02-28 11:31:56,15.08832539,0.000172,53.2161,157.0508,82.8139,277.3048,0.00010403,1.368e-05,0.0,0 STARLINK-4503,1 53528U 22101B   24059.48051229  .00001368  00000-0  10403-3 0  9999,2 53528  53.2161 157.0508 0001720  82.8139 277.3048 15.08832539 84412,6917.903,95.438,540.958,538.578,0.0
53528.0,STARLINK-4503,PAYLOAD,2024-02-28 13:07:19,15.0883655,0.0001469,53.2164,156.7511,95.0778,265.0382,6.8286e-05,7.99e-06,0.0,0 STARLINK-4503,1 53528U 22101B   24059.54674980  .00000799  00000-0  68286-4 0  9991,2 53528  53.2164 156.7511 0001469  95.0778 265.0382 15.08836550 84423,6917.891,95.438,540.772,538.74,0.0
53528.0,STARLINK-4503,PAYLOAD,2024-02-29 12:58:06,15.0884129,0.0001355,53.2165,152.2924,84.9369,275.1777,-3.3232e-05,-8.17e-06,0.0,0 STARLINK-4503,1 53528U 22101B   24060.54035252 -.00000817  00000-0 -33232-4 0  9992,2 53528  53.2165 152.2924 0001355  84.9369 275.1777 15.08841290 84573,6917.876,95.437,540.679,538.804,0.0
53528.0,STARLINK-4503,PAYLOAD,2024-02-29 22:30:25,15.08842792,0.0001361,53.2164,150.5082,84.5816,275.5332,-2.7601e-05,-7.27e-06,0.0,0 STARLINK-4503,1 53528U 22101B   24060.93779078 -.00000727  00000-0 -27601-4 0  9999,2 53528  53.2164 150.5082 0001361  84.5816 275.5332 15.08842792 84634,6917.872,95.437,540.678,538.795,0.0
53528.0,STARLINK-4503,PAYLOAD,2024-03-01 12:48:52,15.08846781,0.0001414,53.2167,147.833,90.2055,269.9099,0.00012169,1.65e-05,0.0,0 STARLINK-4503,1 53528U 22101B   24061.53394402  .00001650  00000-0  12169-3 0  9996,2 53528  53.2167 147.8330 0001414  90.2055 269.9099 15.08846781 84729,6917.86,95.437,540.703,538.746,0.0
53528.0,STARLINK-4503,PAYLOAD,2024-03-02 11:04:18,15.08831995,0.0001305,53.2161,143.6713,91.7579,268.3563,-1.4758e-05,-5.23e-06,0.0,0 STARLINK-4503,1 53528U 22101B   24062.46131977 -.00000523  00000-0 -14758-4 0  9992,2 53528  53.2161 143.6713 0001305  91.7579 268.3563 15.08831995 84863,6917.905,95.438,540.673,538.867,0.0
53528.0,STARLINK-4503,PAYLOAD,2024-03-02 12:39:40,15.08835451,0.000117,53.2153,143.3725,86.4247,273.6879,7.813e-06,-1.63e-06,0.0,0 STARLINK-4503,1 53528U 22101B   24062.52755704 -.00000163  00000-0  78130-5 0  9993,2 53528  53.2153 143.3725 0001170  86.4247 273.6879 15.08835451 84878,6917.894,95.438,540.569,538.95,0.0
